{
  "norad_id": 60487,
  "name": "FLOCK 4BE-25",
  "history": [
    {
      "epoch": "2026-03-28T18:57:13.453920Z",
      "apogee_km": 458.2667549528551,
      "perigee_km": 453.9188179627099,
      "latitude_deg": 4.132903172454773e-05,
      "longitude_deg": 60.00959846451332,
      "height_km": 461.2407672569472,
      "semi_major_axis_km": 6834.229786457782,
      "eccentricity": 0.0003181,
      "inclination_deg": 97.3819,
      "raan_deg": 170.5208,
      "arg_perigee_deg": 159.4577,
      "mean_anomaly_deg": 200.6796,
      "mean_motion_rev_day": 15.36626776
    },
    {
      "epoch": "2026-03-29T04:19:51.331008Z",
      "apogee_km": 458.20832569308186,
      "perigee_km": 453.85086107314055,
      "latitude_deg": -3.950790149866082e-05,
      "longitude_deg": -80.64111974109366,
      "height_km": 461.1693536238601,
      "semi_major_axis_km": 6834.166593383111,
      "eccentricity": 0.0003188,
      "inclination_deg": 97.3819,
      "raan_deg": 170.913,
      "arg_perigee_deg": 158.5306,
      "mean_anomaly_deg": 201.6072,
      "mean_motion_rev_day": 15.36648089
    },
    {
      "epoch": "2026-03-29T23:05:05.955072Z",
      "apogee_km": 458.1441879731801,
      "perigee_km": 453.71707896022053,
      "latitude_deg": 3.044222745763558e-05,
      "longitude_deg": -1.938063924618091,
      "height_km": 461.0752649892696,
      "semi_major_axis_km": 6834.0676334667005,
      "eccentricity": 0.0003239,
      "inclination_deg": 97.382,
      "raan_deg": 171.6972,
      "arg_perigee_deg": 156.6709,
      "mean_anomaly_deg": 203.4683,
      "mean_motion_rev_day": 15.36681466
    },
    {
      "epoch": "2026-03-30T05:20:10.477536Z",
      "apogee_km": 458.112865668274,
      "perigee_km": 453.6799015736542,
      "latitude_deg": 5.736258897578736e-06,
      "longitude_deg": -95.70213403643486,
      "height_km": 461.0330783602608,
      "semi_major_axis_km": 6834.033383620964,
      "eccentricity": 0.00032433,
      "inclination_deg": 97.382,
      "raan_deg": 171.9587,
      "arg_perigee_deg": 155.9896,
      "mean_anomaly_deg": 204.15,
      "mean_motion_rev_day": 15.36693018
    },
    {
      "epoch": "2026-03-30T11:35:14.833248Z",
      "apogee_km": 458.09102921469184,
      "perigee_km": 453.632118505192,
      "latitude_deg": -2.746182507179648e-05,
      "longitude_deg": 170.5343936728078,
      "height_km": 460.9980653924913,
      "semi_major_axis_km": 6833.998573859942,
      "eccentricity": 0.00032623,
      "inclination_deg": 97.3819,
      "raan_deg": 172.2201,
      "arg_perigee_deg": 155.2426,
      "mean_anomaly_deg": 204.8975,
      "mean_motion_rev_day": 15.36704759
    },
    {
      "epoch": "2026-03-30T19:24:05.103360Z",
      "apogee_km": 458.08955849121594,
      "perigee_km": 453.55741257641967,
      "latitude_deg": 4.10551621632062e-05,
      "longitude_deg": 53.33081832624936,
      "height_km": 460.98840414018275,
      "semi_major_axis_km": 6833.9604855338175,
      "eccentricity": 0.00033159,
      "inclination_deg": 97.3819,
      "raan_deg": 172.5469,
      "arg_perigee_deg": 154.9558,
      "mean_anomaly_deg": 205.1848,
      "mean_motion_rev_day": 15.36717606
    },
    {
      "epoch": "2026-03-31T04:46:41.062368Z",
      "apogee_km": 458.03140422618344,
      "perigee_km": 453.53072246802367,
      "latitude_deg": -1.4319368556955772e-05,
      "longitude_deg": -87.311888787398,
      "height_km": 460.9155409243491,
      "semi_major_axis_km": 6833.918063347103,
      "eccentricity": 0.00032929,
      "inclination_deg": 97.3818,
      "raan_deg": 172.9391,
      "arg_perigee_deg": 154.0017,
      "mean_anomaly_deg": 206.1393,
      "mean_motion_rev_day": 15.36731915
    },
    {
      "epoch": "2026-04-01T12:01:58.820736Z",
      "apogee_km": 457.9444592768914,
      "perigee_km": 453.3521555503103,
      "latitude_deg": 2.977882207980568e-07,
      "longitude_deg": 163.88782338913336,
      "height_km": 460.762920937106,
      "semi_major_axis_km": 6833.785307413601,
      "eccentricity": 0.000336,
      "inclination_deg": 97.3819,
      "raan_deg": 174.2464,
      "arg_perigee_deg": 150.7327,
      "mean_anomaly_deg": 209.4106,
      "mean_motion_rev_day": 15.36776695
    },
    {
      "epoch": "2026-04-02T11:28:24.703680Z",
      "apogee_km": 457.81313829374903,
      "perigee_km": 453.1910014996529,
      "latitude_deg": 2.9035843046999817e-05,
      "longitude_deg": 172.29760696099166,
      "height_km": 460.578694928697,
      "semi_major_axis_km": 6833.639069896701,
      "eccentricity": 0.00033819,
      "inclination_deg": 97.3816,
      "raan_deg": 175.2267,
      "arg_perigee_deg": 148.2503,
      "mean_anomaly_deg": 211.8946,
      "mean_motion_rev_day": 15.36826025
    },
    {
      "epoch": "2026-04-03T18:43:35.039424Z",
      "apogee_km": 457.6829841849303,
      "perigee_km": 452.94330316527703,
      "latitude_deg": 4.258451889675581e-05,
      "longitude_deg": 63.52823011533652,
      "height_km": 460.374621428385,
      "semi_major_axis_km": 6833.450143675103,
      "eccentricity": 0.0003468,
      "inclination_deg": 97.3814,
      "raan_deg": 176.5339,
      "arg_perigee_deg": 145.384,
      "mean_anomaly_deg": 214.7631,
      "mean_motion_rev_day": 15.36889759
    }
  ]
}